UNKNOWN                 
1 82961U          25315.90486736  .00010471  00000+0  17177-1 0  9991
2 82961  99.9213 111.9509 0379524  80.0071 284.3648 13.22527452551631
UNKNOWN                 
1 82965U          25301.65945996  .00001337  00000+0  18600-2 0  9994
2 82965 100.1169  19.7271 0002369 200.4397 159.6647 13.59868042518325
UNKNOWN                 
1 83903U          25316.57186086  .00000020  00000+0  00000+0 0  9991
2 83903   6.2614 290.8858 0124852 250.4756 305.0077  0.99112788 43368
UNKNOWN                 
1 83934U          25308.90903197 -.00000304  00000+0  00000+0 0  9999
2 83934   5.8710 297.7524 0234954 271.1488 248.3162  1.02664883 44893
UNKNOWN                 
1 83970U          25316.03415257  .00005436  00000+0  59994-2 0  9996
2 83970  18.2617 254.1475 5072582  80.1282 331.3595  5.31570666194576
UNKNOWN                 
1 84006U          25316.12837925 -.00000106  00000+0  00000+0 0  9998
2 84006  22.5073 183.7426 6139671  50.0292 349.6278  2.16233259 83565
UNKNOWN                 
1 84188U          25314.97898134  .00243409  00000+0  23796+0 0  9990
2 84188  65.1415 284.2946 3879387  22.1184 350.9203  7.27983285 38915
UNKNOWN                 
1 84232U          25315.28415527  .00008128  00000+0  66056-2 0  9992
2 84232  20.3890 292.2903 6566954  31.8689 354.8228  3.16606943103695
UNKNOWN                 
1 84236U          25312.71188957  .00000472  00000+0  34603-2 0  9992
2 84236   9.4478 350.1824 6894804  64.1895 349.7239  2.62485704113080
UNKNOWN                 
1 84292U          25316.32837131  .00007818  00000+0  44387-2 0  9991
2 84292  23.8098 202.4432 4565803 166.7330 211.2363  6.21240621226171
UNKNOWN                 
1 84406U          25312.19766933  .00000706  00000+0  39163-2 0  9995
2 84406 101.7188  95.8978 0043232 111.7327  68.2160 12.67264022 44915
UNKNOWN                 
1 84407U          25315.35182990 -.00000160  00000+0  24596-1 0  9990
2 84407  19.5259 331.7257 7202083  45.0125 354.6079  2.05755909 75225
UNKNOWN                 
1 84575U          25315.01635652 -.00000066  00000+0  39869-2 0  9992
2 84575  18.1415 168.8307 7101044   3.3788 359.7560  2.19885329 64765
UNKNOWN                 
1 84932U          25316.56657416  .00001627  00000+0  13157-1 0  9996
2 84932   2.1479 263.2127 6571192  20.0444 146.4449  2.99887522130872
UNKNOWN                 
1 85004U          25316.15030387  .00001837  00000+0  57808-3 0  9990
2 85004  98.4182 287.6543 0045906 254.3858 165.3854 14.40976747626493
UNKNOWN                 
1 85010U          25310.39877035  .00001418  00000+0  15285-2 0  9993
2 85010  99.2510 173.4238 0027691 349.4301 191.1957 13.74928187598925
UNKNOWN                 
1 85015U          25316.12216802  .00000989  00000+0  20198-3 0  9996
2 85015  74.0478  96.7930 0015259   6.9670 353.1706 14.62228690638131
UNKNOWN                 
1 85023U          25316.24961983  .00084389  00000+0  13306-1 0  9992
2 85023  99.8545 325.2975 0003899  57.7933   1.7691 14.71927996624344
UNKNOWN                 
1 85027U          25316.01390746  .00000183  00000+0  24728-3 0  9996
2 85027  66.0400 176.7503 0180107 206.6959 152.4749 13.74222009600393
UNKNOWN                 
1 85047U          25315.36337177  .00021600  00000+0  36292-1 0  9998
2 85047 102.2381 274.2122 0123947  67.1443 294.2711 13.42828659572440
UNKNOWN                 
1 85061U          25316.43569023  .00005751  00000+0  22859-1 0  9993
2 85061 102.3981 297.4845 0272196 254.3508 262.6505 12.76756853551916
UNKNOWN                 
1 85100U          25312.20175984  .00000588  00000+0  19246-3 0  9998
2 85100  74.0443 286.6340 0012139 170.1669 204.0917 14.40664125628375
UNKNOWN                 
1 85106U          25316.52212874  .00001180  00000+0  13338-2 0  9997
2 85106 100.0561  55.8976 0010118  92.7884 284.8906 13.72841888598924
UNKNOWN                 
1 85151U          25313.11336274  .00029337  00000+0  42074-2 0  9993
2 85151  98.4030 175.7324 0007851 260.7852  99.2468 14.76427018474560
UNKNOWN                 
1 85210U          25316.65357821  .00001348  00000+0  13111-2 0  9994
2 85210  99.8554  96.8253 0216874  31.4107 349.3009 13.71465239598039
UNKNOWN                 
1 85217U          25316.50457310  .00010710  00000+0  28294-2 0  9990
2 85217  98.0312  52.8846 0208822 219.4742 139.1076 14.36840896623515
UNKNOWN                 
1 85237U          25301.49798667  .00004906  00000+0  10732-2 0  9995
2 85237  65.5350 333.5415 0511538  48.4748 315.9051 13.99983230602013
UNKNOWN                 
1 85238U          25315.57764554  .00000123  00000+0  13709-3 0  9993
2 85238  99.0575 245.6558 0062464 285.3325 249.0178 13.88333776606516
UNKNOWN                 
1 85246U          25316.28364952  .00004381  00000+0  15694-2 0  9993
2 85246  97.9880 322.6442 0224425  34.1071 327.4300 14.21317585618748
UNKNOWN                 
1 85373U          25315.84470889  .00003882  00000+0  26576-2 0  9998
2 85373 100.4291 347.6629 0049262 318.1222 221.1853 13.99786096607805
UNKNOWN                 
1 87014U          25315.41741934  .00003854  00000+0  59179-2 0  9991
2 87014 100.4970 277.9631 0056206 319.2508 195.9790 13.51648095586680
UNKNOWN                 
1 87042U          25315.88842541  .00001117  00000+0  68807-3 0  9998
2 87042  98.7179   0.2104 0043861 180.8878 179.2221 14.07028062549623
UNKNOWN                 
1 87051U          25316.43307733  .00002992  00000+0  10325-2 0  9992
2 87051  65.7286 326.5651 0717399 155.2693 208.4619 13.45746512584502
UNKNOWN                 
1 87054U          25314.88887011  .00002670  00000+0  15178-2 0  9998
2 87054 100.0919 190.4084 0013691  67.0431 293.2179 14.10866736611837
UNKNOWN                 
1 87071U          25316.13128952  .00009412  00000+0  33391-2 0  9997
2 87071  61.2237   2.7744 0482907 222.1437 134.1507 13.85192930598241
UNKNOWN                 
1 87129U          25315.21241421  .00000265  00000+0  22443-2 0  9999
2 87129 102.2636  45.8017 0033596 147.4225 212.8920 12.42799446542750
UNKNOWN                 
1 87159U          25310.07296941  .00001307  00000+0  15248-2 0  9991
2 87159  90.3486  68.0777 0103684   6.5928 353.6568 13.65936087551688
UNKNOWN                 
1 87163U          25315.98576810  .00002754  00000+0  85749-3 0  9998
2 87163  65.6015 312.1374 0642164  78.4555 288.7841 13.63647104573321
UNKNOWN                 
1 87164U          25315.55814493  .00008016  00000+0  16555-2 0  9999
2 87164  65.2039  58.2351 0096818  69.6885 291.4586 14.57967224631227
UNKNOWN                 
1 87204U          25315.06789377  .00003388  00000+0  13373-2 0  9994
2 87204  98.5372 176.5264 0046795  56.8502 303.7157 14.29093447620912
UNKNOWN                 
1 87211U          25315.76916074  .00007011  00000+0  19417-2 0  9997
2 87211  99.0868 313.3752 0052533 251.4575 290.9079 14.46143017703290
UNKNOWN                 
1 87214U          25314.94375227  .00002085  00000+0  18811-2 0  9991
2 87214 100.3302 310.4932 0075267 334.3771  25.3658 13.83996397595848
UNKNOWN                 
1 87237U          25315.11366961  .00000560  00000+0  45577-3 0  9997
2 87237  99.2635  10.6614 0103205  10.2212  20.4396 13.91711376607365
UNKNOWN                 
1 87239U          25316.41214644  .00036455  00000+0  91368-2 0  9993
2 87239  82.8725 108.6071 0019839 140.1415 220.1245 14.51065593623479
UNKNOWN                 
1 87245U          25316.47501579  .00022462  00000+0  45522-2 0  9996
2 87245  65.6405 128.7358 0435475 136.3142 258.4660 14.15230151609926
UNKNOWN                 
1 87271U          25316.57917866  .00011679  00000+0  21837-2 0  9997
2 87271  65.7562 317.3307 0420437  89.5985 275.3254 14.21079941608084
UNKNOWN                 
1 87280U          25313.74966117  .00000628  00000+0  10847-2 0  9997
2 87280  64.6158 316.9661 0131551 266.9194  91.6785 13.48511807529406
UNKNOWN                 
1 87293U          25316.12380849  .00016974  00000+0  34053-2 0  9994
2 87293  65.8985 226.5757 0425377  16.2858 345.1418 14.17409442609652
UNKNOWN                 
1 87300U          25315.40493570  .00002845  00000+0  19869-2 0  9999
2 87300 100.0845 294.7286 0030257  14.6882 345.5150 13.99272348608737
UNKNOWN                 
1 87304U          25315.92748525  .00002649  00000+0  39532-3 0  9995
2 87304  74.0210  21.2638 0018644 353.6679   6.4256 14.75245741641938
UNKNOWN                 
1 87320U          25316.29449845  .00004403  00000+0  27722-2 0  9994
2 87320  66.5928 156.8852 0415060  74.5814 290.0695 13.69917288589577
UNKNOWN                 
1 87334U          25316.38263481  .00055930  00000+0  33605-1 0  9996
2 87334  90.0040 271.7176 0080318 343.8954  15.9676 14.04879436382381
UNKNOWN                 
1 87335U          25315.12446891  .00032267  00000+0  19139-1 0  9990
2 87335  89.9875 268.0794 0091396 327.4264  32.1299 14.05283649382535
UNKNOWN                 
1 87405U          25316.32926810  .00006155  00000+0  44068-2 0  9992
2 87405  82.7488  84.1039 0058249  58.7300 301.9554 13.96155000606918
UNKNOWN                 
1 87426U          25316.53883059  .00014867  00000+0  57286-2 0  9990
2 87426  65.7841  56.4007 0067223 304.2831  72.6170 14.29176427618273
UNKNOWN                 
1 87448U          25314.99606912  .00002383  00000+0  19286-2 0  9991
2 87448 100.4530 157.6025 0064392 286.9574  72.4530 13.90459596604829
UNKNOWN                 
1 87456U          25313.03864794  .00012421  00000+0  18871-2 0  9991
2 87456  65.7822 180.3966 0509449  22.4080 339.8411 14.12944038606739
UNKNOWN                 
1 87517U          25314.63790603  .00011326  00000+0  31484-2 0  9991
2 87517  65.8252 311.0221 0674938 321.6945 142.3780 13.60811429588545
UNKNOWN                 
1 87541U          25300.37947772  .00000325  00000+0  71494-3 0  9998
2 87541  99.7065 156.6181 0060633  15.1144 160.1687 13.35560083575847
